Satellite: AO-07
Catalog number: 07530
Epoch time:      11335.58887659
Element set:     243
Inclination:      101.3961 deg
RA of node:       335.5426 deg
Eccentricity:    0.0011873
Arg of perigee:   312.0858 deg
Mean anomaly:     047.9200 deg
Mean motion:   12.53585996 rev/day
Decay rate:       -2.7e-07 rev/day^2
Epoch rev:           69516
Checksum:              319

Satellite: FO-29
Catalog number: 24278
Epoch time:      11334.96307594
Element set:    0739
Inclination:      098.5707 deg
RA of node:       096.8317 deg
Eccentricity:    0.0350522
Arg of perigee:   185.0587 deg
Mean anomaly:     174.6973 deg
Mean motion:   13.52972401 rev/day
Decay rate:        5.5e-07 rev/day^2
Epoch rev:           75501
Checksum:              339

Satellite: SO-33
Catalog number: 25509
Epoch time:      11334.49401466
Element set:    0112
Inclination:      031.4367 deg
RA of node:       023.6279 deg
Eccentricity:    0.0353542
Arg of perigee:   256.1439 deg
Mean anomaly:     099.9604 deg
Mean motion:   14.28571898 rev/day
Decay rate:      1.379e-05 rev/day^2
Epoch rev:           68407
Checksum:              326

Satellite: RS-22
Catalog number: 27939
Epoch time:      11335.71235527
Element set:     861
Inclination:      097.8252 deg
RA of node:       181.5355 deg
Eccentricity:    0.0013548
Arg of perigee:   170.0417 deg
Mean anomaly:     190.1054 deg
Mean motion:   14.63792916 rev/day
Decay rate:      1.120e-05 rev/day^2
Epoch rev:           43684
Checksum:              302

Satellite: VO-52
Catalog number: 28650
Epoch time:      11334.36830378
Element set:    0963
Inclination:      097.6228 deg
RA of node:       009.9043 deg
Eccentricity:    0.0026399
Arg of perigee:   339.8242 deg
Mean anomaly:     020.1916 deg
Mean motion:   14.82462102 rev/day
Decay rate:      1.929e-05 rev/day^2
Epoch rev:           35536
Checksum:              316

Satellite: SO-67
Catalog number: 35870
Epoch time:      11335.89171698
Element set:     456
Inclination:      097.2602 deg
RA of node:       013.5507 deg
Eccentricity:    0.0003051
Arg of perigee:   122.6672 deg
Mean anomaly:     339.5098 deg
Mean motion:   15.22074073 rev/day
Decay rate:      6.755e-05 rev/day^2
Epoch rev:           12243
Checksum:              307

Satellite: HO-68
Catalog number: 36122
Epoch time:      11335.68382941
Element set:     974
Inclination:      100.3940 deg
RA of node:       033.7933 deg
Eccentricity:    0.0007578
Arg of perigee:   199.6954 deg
Mean anomaly:     160.3877 deg
Mean motion:   13.16290732 rev/day
Decay rate:       -4.4e-07 rev/day^2
Epoch rev:            9427
Checksum:              325

/EX
SB KEPS @ AMSAT  $ORB11335.D
Orbital Elements  11335.MICROS

HR AMSAT ORBITAL ELEMENTS FOR THE MICROSATS
FROM WA5QGD FORT WORTH,TX December 1, 2011
Send Subscribe/unsubscribe to KEPS at http://www.amsat.org/mailman/listinfo/keps
BID: ORB11335.D
TO ALL RADIO AMATEURS BT

Satellite: UO-11
Catalog number: 14781
Epoch time:      11335.73485930
Element set:     721
Inclination:      097.9835 deg
RA of node:       031.7225 deg
Eccentricity:    0.0008496
Arg of perigee:   322.8736 deg
Mean anomaly:     037.1887 deg
Mean motion:   14.80198514 rev/day
Decay rate:      1.367e-05 rev/day^2
Epoch rev:           49057
Checksum:              330

Satellite: AO-16
Catalog number: 20439
Epoch time:      11334.88427994
Element set:     338
Inclination:      098.4061 deg
RA of node:       279.1026 deg
Eccentricity:    0.0011677
Arg of perigee:   032.8697 deg
Mean anomaly:     327.3211 deg
Mean motion:   14.31984355 rev/day
Decay rate:       2.45e-06 rev/day^2
Epoch rev:           14147
Checksum:              314

Satellite: LO-19
Catalog number: 20442
Epoch time:      11335.84600481
Element set:     260
Inclination:      098.3699 deg
RA of node:       283.7548 deg
Eccentricity:    0.0012341
Arg of perigee:   023.4971 deg
Mean anomaly:     336.6769 deg
Mean motion:   14.32208112 rev/day
Decay rate:       4.22e-06 rev/day^2
Epoch rev:           14179
Checksum:              296

Satellite: AO-27
Catalog number: 22825
Epoch time:      11334.89274203
Element set:    0976
Inclination:      098.5519 deg
RA of node:       276.0592 deg
Eccentricity:    0.0008965
Arg of perigee:   141.0390 deg
Mean anomaly:     219.1438 deg
Mean motion:   14.29401861 rev/day
Decay rate:       2.27e-06 rev/day^2
Epoch rev:           94800
Checksum:              317

Satellite: IO-26
Catalog number: 22826
Epoch time:      11334.86141229
Element set:    0737
Inclination:      098.5457 deg
RA of node:       276.4539 deg
Eccentricity:    0.0009522
Arg of perigee:   135.5774 deg
Mean anomaly:     224.6173 deg
Mean motion:   14.29669885 rev/day
Decay rate:       2.50e-06 rev/day^2
Epoch rev:           94812
Checksum:              338

Satellite: GO-32
Catalog number: 25397
Epoch time:      11334.88252209
Element set:     642
Inclination:      098.3416 deg
RA of node:       318.6573 deg
Eccentricity:    0.0001952
Arg of perigee:   125.0570 deg
Mean anomaly:     235.0798 deg
Mean motion:   14.23240585 rev/day
Decay rate:        3.6e-07 rev/day^2
Epoch rev:           69567
Checksum:              313

Satellite: NO-44
Catalog number: 26931
Epoch time:      11334.88705937
Element set:    0910
Inclination:      067.0525 deg
RA of node:       273.9703 deg
Eccentricity:    0.0004942
Arg of perigee:   272.3538 deg
Mean anomaly:     087.6990 deg
Mean motion:   14.29727121 rev/day
Decay rate:       2.10e-06 rev/day^2
Epoch rev:           53075
Checksum:              311

Satellite: SO-50
Catalog number: 27607
Epoch time:      11334.12460380
Element set:    0628
Inclination:      064.5565 deg
RA of node:       183.3491 deg
Eccentricity:    0.0083504
Arg of perigee:   287.2844 deg
Mean anomaly:     071.9136 deg
Mean motion:   14.72046142 rev/day
Decay rate:      1.015e-05 rev/day^2
Epoch rev:           48051
Checksum:              286

Satellite: CO-55
Catalog number: 27844
Epoch time:      11335.56560204
Element set:     255
Inclination:      098.7049 deg
RA of node:       341.8408 deg
Eccentricity:    0.0010522
Arg of perigee:   075.1955 deg
Mean anomaly:     285.0386 deg
Mean motion:   14.20911117 rev/day
Decay rate:       4.40e-06 rev/day^2
Epoch rev:           43668
Checksum:              299

Satellite: CO-57
Catalog number: 27848
Epoch time:      11334.69034150
Element set:     201
Inclination:      098.7134 deg
RA of node:       340.2283 deg
Eccentricity:    0.0010730
Arg of perigee:   083.7341 deg
Mean anomaly:     276.5037 deg
Mean motion:   14.20677371 rev/day
Decay rate:       4.00e-06 rev/day^2
Epoch rev:           43650
Checksum:              275

Satellite: AO-51
Catalog number: 28375
Epoch time:      11335.82520438
Element set:     133
Inclination:      098.1192 deg
RA of node:       305.6538 deg
Eccentricity:    0.0083314
Arg of perigee:   282.6930 deg
Mean anomaly:     076.4938 deg
Mean motion:   14.40858914 rev/day
Decay rate:       7.11e-06 rev/day^2
Epoch rev:           39020
Checksum:              306

Satellite: CP3
Catalog number: 31129
Epoch time:      11334.78009747
Element set:    0033
Inclination:      097.8885 deg
RA of node:       349.2932 deg
Eccentricity:    0.0102383
Arg of perigee:   023.8012 deg
Mean anomaly:     336.7886 deg
Mean motion:   14.52735414 rev/day
Decay rate:      1.290e-05 rev/day^2
Epoch rev:           24502
Checksum:              299

Satellite: CO-65
Catalog number: 32785
Epoch time:      11335.70683350
Element set:     164
Inclination:      097.8306 deg
RA of node:       036.2331 deg
Eccentricity:    0.0014666
Arg of perigee:   354.8602 deg
Mean anomaly:     005.2447 deg
Mean motion:   14.82453554 rev/day
Decay rate:      2.359e-05 rev/day^2
Epoch rev:           19435
Checksum:              307

Satellite: PRISM
Catalog number: 33493
Epoch time:      11335.73634672
Element set:     198
Inclination:      098.1455 deg
RA of node:       107.0895 deg
Eccentricity:    0.0019126
Arg of perigee:   218.0070 deg
Mean anomaly:     141.9806 deg
Mean motion:   14.82673278 rev/day
Decay rate:      5.317e-05 rev/day^2
Epoch rev:           15433
Checksum:              307

Satellite: SOHLA-1
Catalog number: 33496
Epoch time:      11334.92215213
Element set:    0592
Inclination:      098.0933 deg
RA of node:       083.1997 deg
Eccentricity:    0.0006234
Arg of perigee:   321.8117 deg
Mean anomaly:     038.2646 deg
Mean motion:   14.69781270 rev/day
Decay rate:       7.33e-06 rev/day^2
Epoch rev:           15297
Checksum:              307

Satellite: TISAT-1
Catalog number: 36799
Epoch time:      11335.78653080
Element set:     468
Inclination:      098.0857 deg
RA of node:       045.5814 deg
Eccentricity:    0.0016220
Arg of perigee:   095.3280 deg
Mean anomaly:     264.9809 deg
Mean motion:   14.81193719 rev/day
Decay rate:      3.295e-05 rev/day^2
Epoch rev:            7511
Checksum:              329

Satellite: STUDSAT
Catalog number: 36801
Epoch time:      11335.88550429
Element set:     293
Inclination:      098.0908 deg
RA of node:       045.7254 deg
Eccentricity:    0.0013887
Arg of perigee:   083.7034 deg
Mean anomaly:     276.5750 deg
Mean motion:   14.82276198 rev/day
Decay rate:      9.185e-05 rev/day^2
Epoch rev:            7512
Checksum:              325

